CCSDS_OMM_VERS = 2.0
CREATION_DATE  = 
ORIGINATOR     = 

OBJECT_NAME    = CYGNUS NG-23
OBJECT_ID      = 2025-208A
CENTER_NAME    = EARTH
REF_FRAME      = TEME
TIME_SYSTEM    = UTC
MEAN_ELEMENT_THEORY = SGP/SGP4

EPOCH          = 2026-01-13T09:39:35.169696
MEAN_MOTION    = 15.49273572
ECCENTRICITY   = .0007762
INCLINATION    = 51.6332
RA_OF_ASC_NODE = 345.7221
ARG_OF_PERICENTER = 13.3130
MEAN_ANOMALY   = 346.8062

EPHEMERIS_TYPE = 0
CLASSIFICATION_TYPE = U
NORAD_CAT_ID   = 65616
ELEMENT_SET_NO = 999
REV_AT_EPOCH   = 22
BSTAR          = .1728265E-3
MEAN_MOTION_DOT = .9179E-4
MEAN_MOTION_DDOT = 0

CCSDS_OMM_VERS = 2.0
CREATION_DATE  = 
ORIGINATOR     = 

OBJECT_NAME    = DRAGONFLY
OBJECT_ID      = 1998-067XH
CENTER_NAME    = EARTH
REF_FRAME      = TEME
TIME_SYSTEM    = UTC
MEAN_ELEMENT_THEORY = SGP/SGP4

EPOCH          = 2026-01-13T06:15:42.205824
MEAN_MOTION    = 15.88290760
ECCENTRICITY   = .0008104
INCLINATION    = 51.6217
RA_OF_ASC_NODE = 332.7016
ARG_OF_PERICENTER = 101.8140
MEAN_ANOMALY   = 258.3775

EPHEMERIS_TYPE = 0
CLASSIFICATION_TYPE = U
NORAD_CAT_ID   = 65729
ELEMENT_SET_NO = 999
REV_AT_EPOCH   = 1814
BSTAR          = .1232E-2
MEAN_MOTION_DOT = .362063E-2
MEAN_MOTION_DDOT = 0

CCSDS_OMM_VERS = 2.0
CREATION_DATE  = 
ORIGINATOR     = 

OBJECT_NAME    = 1998-067XK
OBJECT_ID      = 1998-067XK
CENTER_NAME    = EARTH
REF_FRAME      = TEME
TIME_SYSTEM    = UTC
MEAN_ELEMENT_THEORY = SGP/SGP4

EPOCH          = 2026-01-13T03:06:31.767840
MEAN_MOTION    = 15.73432001
ECCENTRICITY   = .00049147
INCLINATION    = 51.6285
RA_OF_ASC_NODE = 337.1409
ARG_OF_PERICENTER = 72.1641
MEAN_ANOMALY   = 287.9894

EPHEMERIS_TYPE = 0
CLASSIFICATION_TYPE = U
NORAD_CAT_ID   = 65731
ELEMENT_SET_NO = 999
REV_AT_EPOCH   = 1807
BSTAR          = .76195208E-3
MEAN_MOTION_DOT = .109037E-2
MEAN_MOTION_DDOT = 0

CCSDS_OMM_VERS = 2.0
CREATION_DATE  = 
ORIGINATOR     = 

OBJECT_NAME    = RSP-03
OBJECT_ID      = 1998-067XL
CENTER_NAME    = EARTH
REF_FRAME      = TEME
TIME_SYSTEM    = UTC
MEAN_ELEMENT_THEORY = SGP/SGP4

EPOCH          = 2026-01-13T02:44:10.084704
MEAN_MOTION    = 15.79550150
ECCENTRICITY   = .00059708
INCLINATION    = 51.6260
RA_OF_ASC_NODE = 335.5089
ARG_OF_PERICENTER = 81.6480
MEAN_ANOMALY   = 278.5198

EPHEMERIS_TYPE = 0
CLASSIFICATION_TYPE = U
NORAD_CAT_ID   = 65732
ELEMENT_SET_NO = 999
REV_AT_EPOCH   = 1810
BSTAR          = .93052603E-3
MEAN_MOTION_DOT = .17623E-2
MEAN_MOTION_DDOT = 0

CCSDS_OMM_VERS = 2.0
CREATION_DATE  = 
ORIGINATOR     = 

OBJECT_NAME    = GHS-01
OBJECT_ID      = 1998-067XM
CENTER_NAME    = EARTH
REF_FRAME      = TEME
TIME_SYSTEM    = UTC
MEAN_ELEMENT_THEORY = SGP/SGP4

EPOCH          = 2026-01-13T06:54:52.501824
MEAN_MOTION    = 16.00559638
ECCENTRICITY   = .000791
INCLINATION    = 51.6224
RA_OF_ASC_NODE = 330.6229
ARG_OF_PERICENTER = 115.8495
MEAN_ANOMALY   = 244.3332

EPHEMERIS_TYPE = 0
CLASSIFICATION_TYPE = U
NORAD_CAT_ID   = 65733
ELEMENT_SET_NO = 999
REV_AT_EPOCH   = 1818
BSTAR          = .15177E-2
MEAN_MOTION_DOT = .822248E-2
MEAN_MOTION_DDOT = .32923E-3

CCSDS_OMM_VERS = 2.0
CREATION_DATE  = 
ORIGINATOR     = 

OBJECT_NAME    = YOTSUBA-KULOVER
OBJECT_ID      = 1998-067XN
CENTER_NAME    = EARTH
REF_FRAME      = TEME
TIME_SYSTEM    = UTC
MEAN_ELEMENT_THEORY = SGP/SGP4

EPOCH          = 2026-01-13T07:41:11.613984
MEAN_MOTION    = 15.64667821
ECCENTRICITY   = .00040236
INCLINATION    = 51.6291
RA_OF_ASC_NODE = 340.6757
ARG_OF_PERICENTER = 98.6677
MEAN_ANOMALY   = 261.4774

EPHEMERIS_TYPE = 0
CLASSIFICATION_TYPE = U
NORAD_CAT_ID   = 65941
ELEMENT_SET_NO = 999
REV_AT_EPOCH   = 1479
BSTAR          = .80253335E-3
MEAN_MOTION_DOT = .79599E-3
MEAN_MOTION_DDOT = 0

CCSDS_OMM_VERS = 2.0
CREATION_DATE  = 
ORIGINATOR     = 

OBJECT_NAME    = BOTAN
OBJECT_ID      = 1998-067XP
CENTER_NAME    = EARTH
REF_FRAME      = TEME
TIME_SYSTEM    = UTC
MEAN_ELEMENT_THEORY = SGP/SGP4

EPOCH          = 2026-01-13T14:37:11.324640
MEAN_MOTION    = 15.71481007
ECCENTRICITY   = .00048164
INCLINATION    = 51.6262
RA_OF_ASC_NODE = 337.3441
ARG_OF_PERICENTER = 97.0128
MEAN_ANOMALY   = 263.1418

EPHEMERIS_TYPE = 0
CLASSIFICATION_TYPE = U
NORAD_CAT_ID   = 65942
ELEMENT_SET_NO = 999
REV_AT_EPOCH   = 1486
BSTAR          = .88977014E-3
MEAN_MOTION_DOT = .11737E-2
MEAN_MOTION_DDOT = 0

CCSDS_OMM_VERS = 2.0
CREATION_DATE  = 
ORIGINATOR     = 

OBJECT_NAME    = E-KAGAKU-1
OBJECT_ID      = 1998-067XQ
CENTER_NAME    = EARTH
REF_FRAME      = TEME
TIME_SYSTEM    = UTC
MEAN_ELEMENT_THEORY = SGP/SGP4

EPOCH          = 2026-01-13T03:05:07.721376
MEAN_MOTION    = 15.64624113
ECCENTRICITY   = .00026685
INCLINATION    = 51.6312
RA_OF_ASC_NODE = 341.6522
ARG_OF_PERICENTER = 95.8815
MEAN_ANOMALY   = 264.2485

EPHEMERIS_TYPE = 0
CLASSIFICATION_TYPE = U
NORAD_CAT_ID   = 65943
ELEMENT_SET_NO = 999
REV_AT_EPOCH   = 1476
BSTAR          = .66193219E-3
MEAN_MOTION_DOT = .65315E-3
MEAN_MOTION_DDOT = 0

CCSDS_OMM_VERS = 2.0
CREATION_DATE  = 
ORIGINATOR     = 

OBJECT_NAME    = HRC MONOBLOCK CAMERA
OBJECT_ID      = 1998-067XR
CENTER_NAME    = EARTH
REF_FRAME      = TEME
TIME_SYSTEM    = UTC
MEAN_ELEMENT_THEORY = SGP/SGP4

EPOCH          = 2026-01-13T07:51:59.230368
MEAN_MOTION    = 15.56581518
ECCENTRICITY   = .00011219
INCLINATION    = 51.6305
RA_OF_ASC_NODE = 343.7264
ARG_OF_PERICENTER = 356.2255
MEAN_ANOMALY   = 3.8728

EPHEMERIS_TYPE = 0
CLASSIFICATION_TYPE = U
NORAD_CAT_ID   = 66052
ELEMENT_SET_NO = 999
REV_AT_EPOCH   = 1375
BSTAR          = .46734125E-3
MEAN_MOTION_DOT = .33511E-3
MEAN_MOTION_DDOT = 0

CCSDS_OMM_VERS = 2.0
CREATION_DATE  = 
ORIGINATOR     = 

OBJECT_NAME    = HTV-X1
OBJECT_ID      = 2025-241A
CENTER_NAME    = EARTH
REF_FRAME      = TEME
TIME_SYSTEM    = UTC
MEAN_ELEMENT_THEORY = SGP/SGP4

EPOCH          = 2026-01-13T09:39:35.169696
MEAN_MOTION    = 15.49273572
ECCENTRICITY   = .0007762
INCLINATION    = 51.6332
RA_OF_ASC_NODE = 345.7221
ARG_OF_PERICENTER = 13.3130
MEAN_ANOMALY   = 346.8062

EPHEMERIS_TYPE = 0
CLASSIFICATION_TYPE = U
NORAD_CAT_ID   = 66174
ELEMENT_SET_NO = 999
REV_AT_EPOCH   = 51
BSTAR          = .1728265E-3
MEAN_MOTION_DOT = .9179E-4
MEAN_MOTION_DDOT = 0

CCSDS_OMM_VERS = 2.0
CREATION_DATE  = 
ORIGINATOR     = 

OBJECT_NAME    = SZ-21 MODULE
OBJECT_ID      = 2025-246C
CENTER_NAME    = EARTH
REF_FRAME      = TEME
TIME_SYSTEM    = UTC
MEAN_ELEMENT_THEORY = SGP/SGP4

EPOCH          = 2026-01-13T13:01:20.405856
MEAN_MOTION    = 15.64439087
ECCENTRICITY   = .00018255
INCLINATION    = 41.4739
RA_OF_ASC_NODE = 181.7676
ARG_OF_PERICENTER = 159.9707
MEAN_ANOMALY   = 200.1205

EPHEMERIS_TYPE = 0
CLASSIFICATION_TYPE = U
NORAD_CAT_ID   = 66515
ELEMENT_SET_NO = 999
REV_AT_EPOCH   = 942
BSTAR          = .22837422E-3
MEAN_MOTION_DOT = .22293E-3
MEAN_MOTION_DDOT = 0

CCSDS_OMM_VERS = 2.0
CREATION_DATE  = 
ORIGINATOR     = 

OBJECT_NAME    = SHENZHOU-22
OBJECT_ID      = 2025-272A
CENTER_NAME    = EARTH
REF_FRAME      = TEME
TIME_SYSTEM    = UTC
MEAN_ELEMENT_THEORY = SGP/SGP4

EPOCH          = 2026-01-13T12:50:56.454432
MEAN_MOTION    = 15.60479529
ECCENTRICITY   = .00114815
INCLINATION    = 41.4652
RA_OF_ASC_NODE = 183.4811
ARG_OF_PERICENTER = 277.6213
MEAN_ANOMALY   = 82.3322

EPHEMERIS_TYPE = 0
CLASSIFICATION_TYPE = U
NORAD_CAT_ID   = 66645
ELEMENT_SET_NO = 999
REV_AT_EPOCH   = 26764
BSTAR          = .16214447E-3
MEAN_MOTION_DOT = .13458E-3
MEAN_MOTION_DDOT = 0

